[{"OBJECT_NAME":"STARLINK-31927","OBJECT_ID":"2024-097C","EPOCH":"2026-03-09T22:21:49.760352","MEAN_MOTION":15.27566873,"ECCENTRICITY":0.00011387,"INCLINATION":43.0003,"RA_OF_ASC_NODE":273.0098,"ARG_OF_PERICENTER":263.7418,"MEAN_ANOMALY":96.3304,"EPHEMERIS_TYPE":0,"CLASSIFICATION_TYPE":"U","NORAD_CAT_ID":59837,"ELEMENT_SET_NO":999,"REV_AT_EPOCH":10195,"BSTAR":-3.035175e-5,"MEAN_MOTION_DOT":-1.097e-5,"MEAN_MOTION_DDOT":0},{"OBJECT_NAME":"OBJECT A","OBJECT_ID":"2024-203A","EPOCH":"2026-03-09T23:31:20.812800","MEAN_MOTION":15.27300571,"ECCENTRICITY":0.00108989,"INCLINATION":97.4288,"RA_OF_ASC_NODE":139.5608,"ARG_OF_PERICENTER":322.6893,"MEAN_ANOMALY":37.3588,"EPHEMERIS_TYPE":0,"CLASSIFICATION_TYPE":"U","NORAD_CAT_ID":61869,"ELEMENT_SET_NO":999,"REV_AT_EPOCH":7380,"BSTAR":0.00061472876,"MEAN_MOTION_DOT":0.00016411,"MEAN_MOTION_DDOT":0}]
